start=new Date('2022-10-06T00:00:00.000Z').valueOf();
sats=[{"APOAPSIS":"548.402","CENTER_NAME":"EARTH","NORAD_CAT_ID":"48316","GP_ID":"214241489","TLE_LINE1":"1 48316U 21036AS  22278.36863461  .00000906  00000-0  79721-4 0  9997","BSTAR":"0.00007972100000","REV_AT_EPOCH":"7956","LAUNCH_DATE":"2021-04-29","REF_FRAME":"TEME","ARG_OF_PERICENTER":"53.8814","EPHEMERIS_TYPE":"0","RA_OF_ASC_NODE":"309.0135","RCS_SIZE":"LARGE","DECAY_DATE":null,"COUNTRY_CODE":"US","OBJECT_NAME":"STARLINK-2507","PERIAPSIS":"546.015","ELEMENT_SET_NO":"999","PERIOD":"95.592","OBJECT_ID":"2021-036AS","SEMIMAJOR_AXIS":"6925.344","ECCENTRICITY":"0.00017240","EPOCH":"2022-10-05T08:50:50.030304","MEAN_ANOMALY":"306.2335","CLASSIFICATION_TYPE":"U","MEAN_MOTION":"15.06401643","INCLINATION":"53.0540","MEAN_ELEMENT_THEORY":"SGP4","MEAN_MOTION_DDOT":"0.0000000000000","TIME_SYSTEM":"UTC","MEAN_MOTION_DOT":"0.00000906","OBJECT_TYPE":"PAYLOAD","FILE":"3592692","TLE_LINE2":"2 48316  53.0540 309.0135 0001724  53.8814 306.2335 15.06401643 79564","SITE":"AFETR"},{"CLASSIFICATION_TYPE":"U","MEAN_ANOMALY":"298.6067","EPOCH":"2022-10-05T11:56:35.875680","ECCENTRICITY":"0.00016050","SEMIMAJOR_AXIS":"6925.361","OBJECT_ID":"2021-036AT","PERIOD":"95.592","ELEMENT_SET_NO":"999","SITE":"AFETR","TLE_LINE2":"2 48317  53.0546 308.4346 0001605  61.5084 298.6067 15.06395836 79585","FILE":"3592692","OBJECT_TYPE":"PAYLOAD","MEAN_MOTION_DOT":"-0.00001917","TIME_SYSTEM":"UTC","MEAN_MOTION_DDOT":"0.0000000000000","MEAN_ELEMENT_THEORY":"SGP4","MEAN_MOTION":"15.06395836","INCLINATION":"53.0546","LAUNCH_DATE":"2021-04-29","REF_FRAME":"TEME","REV_AT_EPOCH":"7958","BSTAR":"-0.00010982000000","TLE_LINE1":"1 48317U 21036AT  22278.49763745 -.00001917  00000-0 -10982-3 0  9994","GP_ID":"214241740","NORAD_CAT_ID":"48317","CENTER_NAME":"EARTH","APOAPSIS":"548.338","PERIAPSIS":"546.115","OBJECT_NAME":"STARLINK-2513","COUNTRY_CODE":"US","DECAY_DATE":null,"RCS_SIZE":"LARGE","RA_OF_ASC_NODE":"308.4346","ARG_OF_PERICENTER":"61.5084","EPHEMERIS_TYPE":"0"},{"SITE":"AFETR","TIME_SYSTEM":"UTC","OBJECT_TYPE":"PAYLOAD","MEAN_MOTION_DOT":"-0.00001958","TLE_LINE2":"2 48318  53.0549 318.7831 0001948  39.0794 321.0335 15.06401073 79434","FILE":"3592692","MEAN_MOTION_DDOT":"0.0000000000000","INCLINATION":"53.0549","MEAN_MOTION":"15.06401073","MEAN_ELEMENT_THEORY":"SGP4","ECCENTRICITY":"0.00019480","EPOCH":"2022-10-05T10:09:07.526592","MEAN_ANOMALY":"321.0335","CLASSIFICATION_TYPE":"U","SEMIMAJOR_AXIS":"6925.345","OBJECT_ID":"2021-036AU","PERIOD":"95.592","ELEMENT_SET_NO":"999","OBJECT_NAME":"STARLINK-2509","PERIAPSIS":"545.861","DECAY_DATE":null,"RCS_SIZE":"LARGE","COUNTRY_CODE":"US","EPHEMERIS_TYPE":"0","ARG_OF_PERICENTER":"39.0794","RA_OF_ASC_NODE":"318.7831","REV_AT_EPOCH":"7943","BSTAR":"-0.00011254000000","LAUNCH_DATE":"2021-04-29","REF_FRAME":"TEME","TLE_LINE1":"1 48318U 21036AU  22278.42300378 -.00001958  00000-0 -11254-3 0  9995","GP_ID":"214242491","CENTER_NAME":"EARTH","NORAD_CAT_ID":"48318","APOAPSIS":"548.559"},{"TIME_SYSTEM":"UTC","OBJECT_TYPE":"PAYLOAD","MEAN_MOTION_DOT":"-0.00000860","FILE":"3592692","TLE_LINE2":"2 48319  53.0581 318.7975 0001603  66.6157 293.5000 15.06395843 79436","SITE":"AFETR","MEAN_MOTION":"15.06395843","INCLINATION":"53.0581","MEAN_ELEMENT_THEORY":"SGP4","MEAN_MOTION_DDOT":"0.0000000000000","SEMIMAJOR_AXIS":"6925.361","ECCENTRICITY":"0.00016030","EPOCH":"2022-10-05T10:02:27.844512","MEAN_ANOMALY":"293.5000","CLASSIFICATION_TYPE":"U","ELEMENT_SET_NO":"999","PERIOD":"95.592","OBJECT_ID":"2021-036AV","RCS_SIZE":"LARGE","DECAY_DATE":null,"COUNTRY_CODE":"US","OBJECT_NAME":"STARLINK-2512","PERIAPSIS":"546.116","ARG_OF_PERICENTER":"66.6157","EPHEMERIS_TYPE":"0","RA_OF_ASC_NODE":"318.7975","GP_ID":"214241239","TLE_LINE1":"1 48319U 21036AV  22278.41837783 -.00000860  00000-0 -38823-4 0  9993","BSTAR":"-0.00003882300000","REV_AT_EPOCH":"7943","LAUNCH_DATE":"2021-04-29","REF_FRAME":"TEME","APOAPSIS":"548.336","CENTER_NAME":"EARTH","NORAD_CAT_ID":"48319"},{"TLE_LINE1":"1 48320U 21036AW  22278.48197870 -.00001559  00000-0 -85772-4 0  9999","GP_ID":"214240989","REV_AT_EPOCH":"7944","BSTAR":"-0.00008577200000","REF_FRAME":"TEME","LAUNCH_DATE":"2021-04-29","APOAPSIS":"548.476","CENTER_NAME":"EARTH","NORAD_CAT_ID":"48320","RCS_SIZE":"LARGE","DECAY_DATE":null,"COUNTRY_CODE":"US","OBJECT_NAME":"STARLINK-2029","PERIAPSIS":"545.951","ARG_OF_PERICENTER":"59.9686","EPHEMERIS_TYPE":"0","RA_OF_ASC_NODE":"318.5210","SEMIMAJOR_AXIS":"6925.349","ECCENTRICITY":"0.00018230","EPOCH":"2022-10-05T11:34:02.959680","MEAN_ANOMALY":"300.1484","CLASSIFICATION_TYPE":"U","PERIOD":"95.592","ELEMENT_SET_NO":"999","OBJECT_ID":"2021-036AW","TIME_SYSTEM":"UTC","OBJECT_TYPE":"PAYLOAD","MEAN_MOTION_DOT":"-0.00001559","TLE_LINE2":"2 48320  53.0544 318.5210 0001823  59.9686 300.1484 15.06399889 79449","FILE":"3592692","SITE":"AFETR","INCLINATION":"53.0544","MEAN_MOTION":"15.06399889","MEAN_ELEMENT_THEORY":"SGP4","MEAN_MOTION_DDOT":"0.0000000000000"},{"TIME_SYSTEM":"UTC","MEAN_MOTION_DOT":"-0.00001297","OBJECT_TYPE":"PAYLOAD","TLE_LINE2":"2 48321  53.0555 318.8369 0001769  52.2519 307.8630 15.06394193 79439","FILE":"3592692","SITE":"AFETR","INCLINATION":"53.0555","MEAN_MOTION":"15.06394193","MEAN_ELEMENT_THEORY":"SGP4","MEAN_MOTION_DDOT":"0.0000000000000","SEMIMAJOR_AXIS":"6925.366","ECCENTRICITY":"0.00017690","EPOCH":"2022-10-05T09:53:12.524064","MEAN_ANOMALY":"307.8630","CLASSIFICATION_TYPE":"U","PERIOD":"95.593","ELEMENT_SET_NO":"999","OBJECT_ID":"2021-036AX","DECAY_DATE":null,"RCS_SIZE":"LARGE","COUNTRY_CODE":"US","OBJECT_NAME":"STARLINK-2457","PERIAPSIS":"546.006","ARG_OF_PERICENTER":"52.2519","EPHEMERIS_TYPE":"0","RA_OF_ASC_NODE":"318.8369","TLE_LINE1":"1 48321U 21036AX  22278.41195051 -.00001297  00000-0 -68176-4 0  9990","GP_ID":"214242241","REV_AT_EPOCH":"7943","BSTAR":"-0.00006817600000","REF_FRAME":"TEME","LAUNCH_DATE":"2021-04-29","APOAPSIS":"548.456","CENTER_NAME":"EARTH","NORAD_CAT_ID":"48321"},{"OBJECT_ID":"2021-036AY","ELEMENT_SET_NO":"999","PERIOD":"95.594","MEAN_ANOMALY":"284.2452","CLASSIFICATION_TYPE":"U","ECCENTRICITY":"0.00017990","EPOCH":"2022-10-05T09:47:54.110688","SEMIMAJOR_AXIS":"6925.447","MEAN_MOTION_DDOT":"0.0000000000000","MEAN_ELEMENT_THEORY":"SGP4","INCLINATION":"53.0563","MEAN_MOTION":"15.06367815","SITE":"AFETR","FILE":"3592692","TLE_LINE2":"2 48322  53.0563 318.8457 0001799  75.8737 284.2452 15.06367815 79434","TIME_SYSTEM":"UTC","OBJECT_TYPE":"PAYLOAD","MEAN_MOTION_DOT":"0.00006035","NORAD_CAT_ID":"48322","CENTER_NAME":"EARTH","APOAPSIS":"548.558","BSTAR":"0.00042405000000","REV_AT_EPOCH":"7943","REF_FRAME":"TEME","LAUNCH_DATE":"2021-04-29","GP_ID":"214241991","TLE_LINE1":"1 48322U 21036AY  22278.40826517  .00006035  00000-0  42405-3 0  9997","ARG_OF_PERICENTER":"75.8737","EPHEMERIS_TYPE":"0","RA_OF_ASC_NODE":"318.8457","PERIAPSIS":"546.066","OBJECT_NAME":"STARLINK-2477","COUNTRY_CODE":"US","DECAY_DATE":null,"RCS_SIZE":"LARGE"},{"OBJECT_NAME":"STARLINK-2515","PERIAPSIS":"546.067","DECAY_DATE":null,"RCS_SIZE":"LARGE","COUNTRY_CODE":"US","EPHEMERIS_TYPE":"0","ARG_OF_PERICENTER":"51.9321","RA_OF_ASC_NODE":"318.2594","REV_AT_EPOCH":"7945","BSTAR":"-0.00007474800000","LAUNCH_DATE":"2021-04-29","REF_FRAME":"TEME","TLE_LINE1":"1 48323U 21036AZ  22278.53727016 -.00001395  00000-0 -74748-4 0  9998","GP_ID":"214240739","CENTER_NAME":"EARTH","NORAD_CAT_ID":"48323","APOAPSIS":"548.363","SITE":"AFETR","TIME_SYSTEM":"UTC","MEAN_MOTION_DOT":"-0.00001395","OBJECT_TYPE":"PAYLOAD","FILE":"3592692","TLE_LINE2":"2 48323  53.0553 318.2594 0001658  51.9321 308.1818 15.06399605 79454","MEAN_MOTION_DDOT":"0.0000000000000","INCLINATION":"53.0553","MEAN_MOTION":"15.06399605","MEAN_ELEMENT_THEORY":"SGP4","ECCENTRICITY":"0.00016580","EPOCH":"2022-10-05T12:53:40.141824","MEAN_ANOMALY":"308.1818","CLASSIFICATION_TYPE":"U","SEMIMAJOR_AXIS":"6925.350","OBJECT_ID":"2021-036AZ","PERIOD":"95.592","ELEMENT_SET_NO":"999"},{"PERIOD":"95.592","ELEMENT_SET_NO":"999","OBJECT_ID":"2021-036BA","SEMIMAJOR_AXIS":"6925.338","MEAN_ANOMALY":"292.0167","CLASSIFICATION_TYPE":"U","ECCENTRICITY":"0.00014250","EPOCH":"2022-10-05T11:11:27.721248","MEAN_ELEMENT_THEORY":"SGP4","INCLINATION":"53.0568","MEAN_MOTION":"15.06403483","MEAN_MOTION_DDOT":"0.0000000000000","TLE_LINE2":"2 48324  53.0568 318.5639 0001425  68.0973 292.0167 15.06403483 79434","FILE":"3592692","TIME_SYSTEM":"UTC","OBJECT_TYPE":"PAYLOAD","MEAN_MOTION_DOT":"-0.00001083","SITE":"AFETR","APOAPSIS":"548.190","NORAD_CAT_ID":"48324","CENTER_NAME":"EARTH","GP_ID":"214241490","TLE_LINE1":"1 48324U 21036BA  22278.46629307 -.00001083  00000-0 -53793-4 0  9996","REV_AT_EPOCH":"7943","BSTAR":"-0.00005379300000","REF_FRAME":"TEME","LAUNCH_DATE":"2021-04-29","EPHEMERIS_TYPE":"0","ARG_OF_PERICENTER":"68.0973","RA_OF_ASC_NODE":"318.5639","COUNTRY_CODE":"US","RCS_SIZE":"LARGE","DECAY_DATE":null,"PERIAPSIS":"546.216","OBJECT_NAME":"STARLINK-2527"},{"MEAN_MOTION_DDOT":"0.0000000000000","MEAN_ELEMENT_THEORY":"SGP4","INCLINATION":"53.0546","MEAN_MOTION":"15.06372663","SITE":"AFETR","FILE":"3592692","TLE_LINE2":"2 48325  53.0546 318.9036 0001598  62.3085 297.8066 15.06372663 79434","TIME_SYSTEM":"UTC","MEAN_MOTION_DOT":"0.00006413","OBJECT_TYPE":"PAYLOAD","OBJECT_ID":"2021-036BB","ELEMENT_SET_NO":"999","PERIOD":"95.594","MEAN_ANOMALY":"297.8066","CLASSIFICATION_TYPE":"U","ECCENTRICITY":"0.00015980","EPOCH":"2022-10-05T09:31:59.712096","SEMIMAJOR_AXIS":"6925.432","ARG_OF_PERICENTER":"62.3085","EPHEMERIS_TYPE":"0","RA_OF_ASC_NODE":"318.9036","PERIAPSIS":"546.191","OBJECT_NAME":"STARLINK-2495","COUNTRY_CODE":"US","RCS_SIZE":"LARGE","DECAY_DATE":null,"NORAD_CAT_ID":"48325","CENTER_NAME":"EARTH","APOAPSIS":"548.404","REV_AT_EPOCH":"7943","BSTAR":"0.00044938000000","REF_FRAME":"TEME","LAUNCH_DATE":"2021-04-29","TLE_LINE1":"1 48325U 21036BB  22278.39721889  .00006413  00000-0  44938-3 0  9997","GP_ID":"214241741"}];
